0 DELTA 1 DEB
1 07124U 73086CN  13282.44860157 -.00000011  00000-0  27865-3 0  8756
2 07124 102.0663 258.0697 0052780 297.4928 233.6674 12.29976767792256
0 DELTA 1 DEB
1 07124U 73086CN  13286.16599662 -.00000044  00000-0  27234-5 0  8768
2 07124 102.0668 261.6842 0052734 290.7040 134.0088 12.29977140792713
0 DELTA 1 DEB
1 07124U 73086CN  13288.46489407 -.00000052  00000-0 -68701-4 0  8772
2 07124 102.0673 263.9196 0052707 286.5267 233.3325 12.29977322792999
0 DELTA 1 DEB
1 07124U 73086CN  13290.88130852 -.00000041  00000-0  23504-4 0  8788
2 07124 102.0680 266.2690 0052700 282.0954 133.0544 12.29977239793299
0 DELTA 1 DEB
1 07124U 73086CN  13292.91517016 -.00000025  00000-0  16142-3 0  8797
2 07124 102.0686 268.2465 0052693 278.3864 138.8375 12.29977136793545
0 DELTA 1 DEB
1 07124U 73086CN  13295.45059270 -.00000011  00000-0  28227-3 0  8806
2 07124 102.0689 270.7121 0052708 273.7473 205.5080 12.29977179793853
